{
  "norad_id": 47772,
  "name": "STARLINK-2195",
  "history": [
    {
      "epoch": "2026-03-28T12:32:11.467680Z",
      "apogee_km": 476.15269260586774,
      "perigee_km": 474.3113294199893,
      "latitude_deg": -4.27964619956014e-05,
      "longitude_deg": 115.81159380356988,
      "height_km": 476.0934127165603,
      "semi_major_axis_km": 6853.369011012928,
      "eccentricity": 0.00013434,
      "inclination_deg": 53.1602,
      "raan_deg": 129.801,
      "arg_perigee_deg": 87.7217,
      "mean_anomaly_deg": 272.3937,
      "mean_motion_rev_day": 15.30194326
    },
    {
      "epoch": "2026-03-30T02:09:28.655136Z",
      "apogee_km": 476.45515819913,
      "perigee_km": 474.0085055261552,
      "latitude_deg": -1.6445212913194195e-05,
      "longitude_deg": -97.33605821673896,
      "height_km": 476.16268801884627,
      "semi_major_axis_km": 6853.368831862642,
      "eccentricity": 0.0001785,
      "inclination_deg": 53.1606,
      "raan_deg": 122.52,
      "arg_perigee_deg": 91.5664,
      "mean_anomaly_deg": 268.5541,
      "mean_motion_rev_day": 15.30194386
    },
    {
      "epoch": "2026-03-30T11:33:47.929536Z",
      "apogee_km": 476.32309732212434,
      "perigee_km": 474.1653787731375,
      "latitude_deg": 2.716420132609911e-05,
      "longitude_deg": 119.37670056258798,
      "height_km": 476.3538480039082,
      "semi_major_axis_km": 6853.38123804763,
      "eccentricity": 0.00015742,
      "inclination_deg": 53.1609,
      "raan_deg": 120.6993,
      "arg_perigee_deg": 101.3234,
      "mean_anomaly_deg": 258.7944,
      "mean_motion_rev_day": 15.30190231
    },
    {
      "epoch": "2026-03-31T11:04:35.389344Z",
      "apogee_km": 476.26752721717276,
      "perigee_km": 474.09516236823947,
      "latitude_deg": 5.121187145120041e-05,
      "longitude_deg": 121.16331840004192,
      "height_km": 476.27745088704637,
      "semi_major_axis_km": 6853.318344792706,
      "eccentricity": 0.00015849,
      "inclination_deg": 53.1616,
      "raan_deg": 116.1493,
      "arg_perigee_deg": 100.5175,
      "mean_anomaly_deg": 259.6005,
      "mean_motion_rev_day": 15.30211295
    },
    {
      "epoch": "2026-04-01T18:25:40.792800Z",
      "apogee_km": 476.19276288168294,
      "perigee_km": 474.354678126444,
      "latitude_deg": -2.8897095402407326e-05,
      "longitude_deg": 3.535085628011554,
      "height_km": 475.96414275621254,
      "semi_major_axis_km": 6853.410720504064,
      "eccentricity": 0.0001341,
      "inclination_deg": 53.1607,
      "raan_deg": 110.0812,
      "arg_perigee_deg": 76.9399,
      "mean_anomaly_deg": 283.1751,
      "mean_motion_rev_day": 15.30180357
    },
    {
      "epoch": "2026-04-02T17:56:28.687200Z",
      "apogee_km": 476.17083909822213,
      "perigee_km": 474.2603985222031,
      "latitude_deg": 6.302871974584645e-05,
      "longitude_deg": 5.318637841754411,
      "height_km": 475.9241105397355,
      "semi_major_axis_km": 6853.352618810212,
      "eccentricity": 0.00013938,
      "inclination_deg": 53.1602,
      "raan_deg": 105.5299,
      "arg_perigee_deg": 78.5596,
      "mean_anomaly_deg": 281.5562,
      "mean_motion_rev_day": 15.30199816
    },
    {
      "epoch": "2026-04-03T09:37:00.266592Z",
      "apogee_km": 476.2594461763165,
      "perigee_km": 474.1085999064453,
      "latitude_deg": 2.304086316929174e-05,
      "longitude_deg": 126.50916000286013,
      "height_km": 475.89351384705617,
      "semi_major_axis_km": 6853.321023041381,
      "eccentricity": 0.00015692,
      "inclination_deg": 53.1597,
      "raan_deg": 102.4958,
      "arg_perigee_deg": 79.9227,
      "mean_anomaly_deg": 280.1951,
      "mean_motion_rev_day": 15.30210398
    },
    {
      "epoch": "2026-04-04T05:59:41.735904Z",
      "apogee_km": 476.5337189833308,
      "perigee_km": 473.89558979748927,
      "latitude_deg": 1.37253936753666e-05,
      "longitude_deg": 176.05636162213347,
      "height_km": 477.0084497772233,
      "semi_major_axis_km": 6853.35165439041,
      "eccentricity": 0.00019247,
      "inclination_deg": 53.16,
      "raan_deg": 98.5527,
      "arg_perigee_deg": 132.7828,
      "mean_anomaly_deg": 227.3335,
      "mean_motion_rev_day": 15.30200139
    },
    {
      "epoch": "2026-04-05T07:04:33.381984Z",
      "apogee_km": 476.0750485400713,
      "perigee_km": 474.40145430367375,
      "latitude_deg": 5.591090852193967e-05,
      "longitude_deg": 153.9573592178507,
      "height_km": 476.28911346228887,
      "semi_major_axis_km": 6853.375251421872,
      "eccentricity": 0.0001221,
      "inclination_deg": 53.1589,
      "raan_deg": 93.6989,
      "arg_perigee_deg": 100.523,
      "mean_anomaly_deg": 259.5909,
      "mean_motion_rev_day": 15.30192236
    },
    {
      "epoch": "2026-04-06T05:01:18.437952Z",
      "apogee_km": 476.0211979749829,
      "perigee_km": 474.46548063796035,
      "latitude_deg": -3.3936571483531974e-05,
      "longitude_deg": 179.6215733053317,
      "height_km": 476.1994143649488,
      "semi_major_axis_km": 6853.380339306471,
      "eccentricity": 0.0001135,
      "inclination_deg": 53.1592,
      "raan_deg": 89.4522,
      "arg_perigee_deg": 94.2686,
      "mean_anomaly_deg": 265.8444,
      "mean_motion_rev_day": 15.30190532
    },
    {
      "epoch": "2026-04-07T09:14:14.828640Z",
      "apogee_km": 475.94003914524,
      "perigee_km": 474.3969488802086,
      "latitude_deg": 2.4084622118175367e-05,
      "longitude_deg": 109.76667609575935,
      "height_km": 476.0820496483272,
      "semi_major_axis_km": 6853.305494012724,
      "eccentricity": 0.00011258,
      "inclination_deg": 53.1591,
      "raan_deg": 83.991,
      "arg_perigee_deg": 91.1421,
      "mean_anomaly_deg": 268.9709,
      "mean_motion_rev_day": 15.30215599
    },
    {
      "epoch": "2026-04-08T05:36:57.124800Z",
      "apogee_km": 476.0442182476054,
      "perigee_km": 474.42216259093766,
      "latitude_deg": 1.0183791948537648e-05,
      "longitude_deg": 159.30921742206897,
      "height_km": 476.0143718868103,
      "semi_major_axis_km": 6853.370190419271,
      "eccentricity": 0.00011834,
      "inclination_deg": 53.1598,
      "raan_deg": 80.0467,
      "arg_perigee_deg": 81.7051,
      "mean_anomaly_deg": 278.4084,
      "mean_motion_rev_day": 15.30193931
    },
    {
      "epoch": "2026-04-09T05:07:44.680512Z",
      "apogee_km": 475.99807055388374,
      "perigee_km": 474.3986391487688,
      "latitude_deg": 6.347235755377385e-05,
      "longitude_deg": 161.0944521189506,
      "height_km": 475.9231872679348,
      "semi_major_axis_km": 6853.335354851326,
      "eccentricity": 0.00011669,
      "inclination_deg": 53.1599,
      "raan_deg": 75.4957,
      "arg_perigee_deg": 77.4768,
      "mean_anomaly_deg": 282.6364,
      "mean_motion_rev_day": 15.30205598
    },
    {
      "epoch": "2026-04-10T01:30:26.188704Z",
      "apogee_km": 476.01155000154176,
      "perigee_km": 474.401014330233,
      "latitude_deg": 3.8530443600187635e-05,
      "longitude_deg": -149.36142250205106,
      "height_km": 475.80350868997544,
      "semi_major_axis_km": 6853.343282165887,
      "eccentricity": 0.0001175,
      "inclination_deg": 53.1599,
      "raan_deg": 71.5497,
      "arg_perigee_deg": 68.0441,
      "mean_anomaly_deg": 292.0685,
      "mean_motion_rev_day": 15.30202943
    },
    {
      "epoch": "2026-04-11T21:23:55.474656Z",
      "apogee_km": 476.7267955670013,
      "perigee_km": 473.7496893616735,
      "latitude_deg": 6.987960597294177e-05,
      "longitude_deg": -98.02948612148056,
      "height_km": 476.6376920283652,
      "semi_major_axis_km": 6853.375242464337,
      "eccentricity": 0.0002172,
      "inclination_deg": 53.1598,
      "raan_deg": 63.0562,
      "arg_perigee_deg": 109.7302,
      "mean_anomaly_deg": 250.3934,
      "mean_motion_rev_day": 15.30192239
    },
    {
      "epoch": "2026-04-13T03:10:57.669024Z",
      "apogee_km": 476.1455503371808,
      "perigee_km": 474.36503901902324,
      "latitude_deg": 7.815170340930407e-05,
      "longitude_deg": 168.2232931681057,
      "height_km": 476.28313627119013,
      "semi_major_axis_km": 6853.392294678102,
      "eccentricity": 0.0001299,
      "inclination_deg": 53.1611,
      "raan_deg": 57.2913,
      "arg_perigee_deg": 98.3764,
      "mean_anomaly_deg": 261.7385,
      "mean_motion_rev_day": 15.30186528
    },
    {
      "epoch": "2026-04-14T19:55:15.074112Z",
      "apogee_km": 473.61646486130667,
      "perigee_km": 471.6037153662319,
      "latitude_deg": 4.5224698641063654e-05,
      "longitude_deg": -92.41510791218545,
      "height_km": 473.51422744622846,
      "semi_major_axis_km": 6850.7470901137685,
      "eccentricity": 0.0001469,
      "inclination_deg": 53.1603,
      "raan_deg": 49.3985,
      "arg_perigee_deg": 90.34,
      "mean_anomaly_deg": 269.777,
      "mean_motion_rev_day": 15.31072865
    },
    {
      "epoch": "2026-04-15T20:00:01.999008Z",
      "apogee_km": 471.8057267790373,
      "perigee_km": 469.68668231555057,
      "latitude_deg": 34.44152931678154,
      "longitude_deg": 50.00732802614937,
      "height_km": 472.44818967182783,
      "semi_major_axis_km": 6848.883204547294,
      "eccentricity": 0.0001547,
      "inclination_deg": 53.1608,
      "raan_deg": 44.7304,
      "arg_perigee_deg": 91.9741,
      "mean_anomaly_deg": 43.2106,
      "mean_motion_rev_day": 15.31697917
    },
    {
      "epoch": "2026-04-16T22:00:01.998720Z",
      "apogee_km": 471.7037208225047,
      "perigee_km": 469.87368787430296,
      "latitude_deg": -6.326063115064739,
      "longitude_deg": -140.1156344983989,
      "height_km": 472.98509603103525,
      "semi_major_axis_km": 6848.925704348403,
      "eccentricity": 0.0001336,
      "inclination_deg": 53.1608,
      "raan_deg": 39.6879,
      "arg_perigee_deg": 98.6107,
      "mean_anomaly_deg": 253.6379,
      "mean_motion_rev_day": 15.3168366
    }
  ]
}